GLOBALSTAR M068 [-]     
1 32266U 07048D   23285.75046906 -.00000056  00000+0  26625-3 0  9990
2 32266  51.9912  12.1248 0000753 184.5255 316.6402 12.62767872740057
GLOBALSTAR M079 [+]     
1 37188U 10054A   23285.52519387 -.00000099  00000+0  28176-4 0  9993
2 37188  52.0031 207.8725 0000847  59.2769 112.0410 12.62268657598958
GLOBALSTAR M074 [+]     
1 37189U 10054B   23285.92609044 -.00000090  00000+0  79057-4 0  9993
2 37189  52.0007 206.0693 0000697  71.7418   2.5319 12.62270580599613
GLOBALSTAR M076 [+]     
1 37190U 10054C   23285.95342251 -.00000095  00000+0  50521-4 0  9992
2 37190  52.0021 206.1015 0001252  79.4895 358.9846 12.62262007599339
GLOBALSTAR M077 [+]     
1 37191U 10054D   23285.87242917 -.00000062  00000+0  23070-3 0  9994
2 37191  52.0057 163.0299 0000824  83.3384  45.6838 12.62267438599698
GLOBALSTAR M075 [+]     
1 37192U 10054E   23285.67058306 -.00000109  00000+0 -29879-4 0  9997
2 37192  51.9935 249.5617 0000636  51.7684 120.0897 12.62254204598520
GLOBALSTAR M073 [+]     
1 37193U 10054F   23285.97203132 -.00000055  00000+0  27068-3 0  9996
2 37193  52.0041 161.9950 0000875  76.8369  26.0858 12.62268490600394
GLOBALSTAR M083 [+]     
1 37739U 11033A   23285.82637692 -.00000064  00000+0  22377-3 0  9994
2 37739  51.9838 112.0044 0000648  75.8540  26.2814 12.62270271569399
GLOBALSTAR M088 [+]     
1 37740U 11033B   23285.97381259 -.00000092  00000+0  68110-4 0  9994
2 37740  51.9759  17.5642 0000490  75.5830  96.0839 12.62266117564953
GLOBALSTAR M091 [+]     
1 37741U 11033C   23285.47960553 -.00000073  00000+0  17123-3 0  9996
2 37741  52.0018 341.5300 0000424  57.1334 326.9675 12.62267053565940
GLOBALSTAR M085 [+]     
1 37742U 11033D   23285.73605843 -.00000084  00000+0  10859-3 0  9995
2 37742  51.9862 292.3299 0000438  40.2851 130.4995 12.62263710566229
GLOBALSTAR M081 [+]     
1 37743U 11033E   23285.51723222 -.00000075  00000+0  16118-3 0  9998
2 37743  51.9954 295.4049 0000621  48.3954  87.3933 12.62265436566720
GLOBALSTAR M089 [+]     
1 37744U 11033F   23285.64380259 -.00000102  00000+0  11298-4 0  9998
2 37744  51.9919 249.3616 0000716  80.3217  90.6023 12.62268108567203
GLOBALSTAR M084 [+]     
1 38040U 11080A   23285.78084450 -.00000072  00000+0  17739-3 0  9990
2 38040  51.9987 115.9072 0001057  98.8697 274.3270 12.62266842545201
GLOBALSTAR M080 [+]     
1 38041U 11080B   23285.76989917 -.00000069  00000+0  19402-3 0  9996
2 38041  52.0039 117.3314 0001269  94.7841 348.9336 12.62265494545324
GLOBALSTAR M082 [+]     
1 38042U 11080C   23285.70833160 -.00000101  00000+0  12943-4 0  9990
2 38042  52.0075  72.8969 0000201  73.5000  31.1435 12.62271607546025
GLOBALSTAR M092 [+]     
1 38043U 11080D   23285.83451080 -.00000072  00000+0  17762-3 0  9992
2 38043  52.0071 162.8593 0000904 100.5565 338.1178 12.62272852544498
GLOBALSTAR M090 [+]     
1 38044U 11080E   23285.73506854 -.00000104  00000+0 -11066-7 0  9994
2 38044  51.9888  67.4138 0000589  81.2340  25.6127 12.62278184546143
GLOBALSTAR M086 [+]     
1 38045U 11080F   23285.66163497 -.00000097  00000+0  40623-4 0  9997
2 38045  51.9899  68.1413 0001515  64.7511 307.9134 12.62263327546086
GLOBALSTAR M097 [+]     
1 39072U 13005A   23285.84388666 -.00000076  00000+0  15305-3 0  9999
2 39072  52.0068 341.5155 0000436  53.2388 306.8518 12.62271050493351
GLOBALSTAR M093 [+]     
1 39073U 13005B   23285.50060579 -.00000074  00000+0  16512-3 0  9992
2 39073  51.9830 336.8456 0000578  36.4914 323.5992 12.62267417493380
GLOBALSTAR M094 [+]     
1 39074U 13005C   23285.57984447 -.00000109  00000+0 -26484-4 0  9999
2 39074  51.9946 250.3714 0000653  49.5861 310.5063 12.62268395494883
GLOBALSTAR M096 [+]     
1 39075U 13005D   23285.75132590 -.00000079  00000+0  13743-3 0  9992
2 39075  52.0071 297.8855 0000523  40.9375 319.1531 12.62264831493827
GLOBALSTAR M078 [+]     
1 39076U 13005E   23285.72470593 -.00000205  00000+0 -56275-3 0  9997
2 39076  51.9905  23.3064 0000493 236.7205 123.3615 12.62260258492443
GLOBALSTAR M095 [+]     
1 39077U 13005F   23285.59307997 -.00000093  00000+0  57567-4 0  9990
2 39077  51.9826  21.2111 0000167 350.4176   9.6687 12.62269318492288
GLOBALSTAR M087 [+]     
1 52888U 22064A   23285.50417999 -.00000060  00000+0  13072-3 0  9991
2 52888  51.9778 355.5142 0010017  93.9740 266.2306 13.37554779 64248
